MEAN_MOTION;ECCENTRICITY;INCLINATION;RA_OF_ASC_NODE;ARG_OF_PERICENTER;MEAN_ANOMALY;BSTAR;MEAN_MOTION_DOT;MEAN_MOTION_DDOT;TYPE
15.06715881;0.0014015;97.4768;127.2726;91.3182;268.9652;5.2661E-5;7.23E-6;0;Amateur
15.06716321;0.0014003;97.4767;127.5951;90.3097;269.9735;5.1385E-5;7.04E-6;0;Amateur
15.06717435;0.0013984;97.4766;128.2399;88.284;271.9989;5.1668E-5;7.08E-6;0;Amateur
15.06719685;0.0013967;97.4764;128.6268;87.0563;273.2263;6.7631E-5;9.46E-6;0;Amateur
15.0672068;0.0013948;97.4763;129.1427;85.4479;274.8341;6.842E-5;9.58E-6;0;Amateur
15.06721138;0.0013925;97.4762;129.5296;84.2216;276.0599;6.6458E-5;9.29E-6;0;Amateur
15.0672375;0.0013873;97.476;130.4968;81.1934;279.0864;7.6793E-5;1.083E-5;0;Amateur
15.06724496;0.0013845;97.4759;130.9482;79.8149;280.4639;7.7179E-5;1.088E-5;0;Amateur
15.06727062;0.0013789;97.4757;131.9153;76.8297;283.4468;8.5813E-5;1.217E-5;0;Amateur
15.06729782;0.0013729;97.4755;133.0115;73.4551;286.8184;9.3378E-5;1.33E-5;0;Amateur
15.06730363;0.0013723;97.4755;133.1405;73.0226;287.2505;9.6646E-5;1.378E-5;0;Amateur
15.06733226;0.0013669;97.4754;134.0432;70.216;290.0541;0.00010679;1.53E-5;0;Amateur
15.06735461;0.0013625;97.4752;135.1393;66.8128;293.4533;9.8872E-5;1.412E-5;0;Amateur
15.0673789;0.0013582;97.4751;136.0419;63.9741;296.2884;9.7744E-5;1.395E-5;0;Amateur
15.06739038;0.0013561;97.4751;136.4287;62.787;297.4738;9.7533E-5;1.392E-5;0;Amateur
15.06741629;0.0013539;97.4751;136.9446;61.1348;299.1236;0.00010962;1.572E-5;0;Amateur
15.06743496;0.0013498;97.475;137.7183;58.7319;301.5229;0.00010255;1.467E-5;0;Amateur
15.06744301;0.0013476;97.475;138.1051;57.5143;302.7385;9.7637E-5;1.394E-5;0;Amateur
15.0674632;0.0013452;97.4749;138.7498;55.494;304.7556;9.6524E-5;1.377E-5;0;Amateur
15.06746763;0.0013438;97.4749;138.9432;54.8798;305.3688;9.4429E-5;1.346E-5;0;Amateur
15.06748709;0.0013396;97.4748;139.7169;52.4375;307.8067;8.8105E-5;1.252E-5;0;Amateur
15.06749333;0.0013372;97.4747;140.0393;51.4163;308.826;8.397E-5;1.19E-5;0;Amateur
15.06749769;0.0013362;97.4747;140.2327;50.8127;309.4286;8.1951E-5;1.16E-5;0;Amateur
15.06750413;0.0013344;97.4746;140.684;49.3872;310.8514;7.4272E-5;1.046E-5;0;Amateur
15.06751095;0.0013324;97.4745;141.0064;48.3319;311.9047;7.1782E-5;1.009E-5;0;Amateur
15.06752576;0.0013264;97.4743;141.9089;45.4027;314.828;6.1416E-5;8.54E-6;0;Amateur
15.06754536;0.0013207;97.4741;142.747;42.6577;317.5674;5.9396E-5;8.24E-6;0;Amateur
15.06755874;0.0013128;97.4738;143.7139;39.4626;320.7556;5.1247E-5;7.03E-6;0;Amateur
15.06756697;0.0013095;97.4737;144.1007;38.1637;322.0515;5.1061E-5;7.0E-6;0;Amateur
15.06757578;0.0013051;97.4736;144.6809;36.2483;323.9627;4.9353E-5;6.75E-6;0;Amateur
15.06759358;0.0012983;97.4734;145.39;33.8448;326.3606;5.5022E-5;7.59E-6;0;Amateur
15.06760475;0.0012918;97.4732;146.0346;31.6345;328.5657;5.5345E-5;7.64E-6;0;Amateur
15.06761995;0.0012861;97.4731;146.6147;29.6734;330.5221;6.2341E-5;8.68E-6;0;Amateur
15.06764137;0.0012802;97.4729;147.2592;27.4503;332.7398;7.4313E-5;1.046E-5;0;Amateur
15.0676481;0.0012776;97.4729;147.4526;26.7798;333.4087;7.7749E-5;1.098E-5;0;Amateur
15.06764907;0.0012766;97.4729;147.5171;26.5353;333.6526;7.7669E-5;1.096E-5;0;Amateur
15.06767501;0.0012656;97.4727;148.4195;23.4132;336.7669;8.9107E-5;1.267E-5;0;Amateur
15.06767853;0.0012641;97.4727;148.5484;22.9706;337.2084;9.0344E-5;1.285E-5;0;Amateur
15.06768685;0.0012602;97.4726;148.9351;21.5796;338.5961;9.1414E-5;1.301E-5;0;Amateur
15.06771903;0.0012486;97.4725;149.9019;18.1632;342.004;0.00010388;1.487E-5;0;Amateur
15.06773977;0.0012418;97.4725;150.4821;16.1614;344.0008;0.00010998;1.578E-5;0;Amateur
15.06779325;0.0012282;97.4723;151.6423;12.1269;348.0252;0.00013009;1.878E-5;0;Amateur
15.06780075;0.0012248;97.4724;151.8357;11.4594;348.691;0.00013054;1.885E-5;0;Amateur
15.06787876;0.001205;97.4722;153.3827;6.183;353.9544;0.00014775;2.142E-5;0;Amateur
15.06788924;0.0012021;97.4722;153.6405;5.2734;354.8618;0.00014652;2.123E-5;0;Amateur
15.06792005;0.0011948;97.4721;154.3495;2.8261;357.3032;0.00014392;2.085E-5;0;Amateur
15.06793832;0.0011899;97.4721;154.8007;1.2634;358.8621;0.00013966;2.021E-5;0;Amateur
15.06796103;0.001183;97.472;155.5097;358.821;1.2988;0.00012732;1.837E-5;0;Amateur
15.0679662;0.0011788;97.4719;155.8319;357.6766;2.4405;0.00011472;1.65E-5;0;Amateur
15.06798507;0.001174;97.4719;156.2831;356.1159;3.9976;0.00011285;1.622E-5;0;Amateur
15.06801633;0.0011633;97.4717;157.2499;352.7291;7.3766;9.9743E-5;1.426E-5;0;Amateur
15.06804028;0.001152;97.4714;158.4744;348.3242;11.7717;7.3656E-5;1.037E-5;0;Amateur
15.06806573;0.0011433;97.4712;159.4411;344.7374;15.3508;6.7162E-5;9.41E-6;0;Amateur
15.06807854;0.001136;97.471;160.2145;341.8711;18.211;5.7638E-5;7.99E-6;0;Amateur
15.06809025;0.0011305;97.4708;160.8589;339.4365;20.6406;5.3556E-5;7.38E-6;0;Amateur
15.06810168;0.0011265;97.4707;161.3745;337.4453;22.6278;5.3403E-5;7.36E-6;0;Amateur
15.06811295;0.0011211;97.4705;162.1478;334.4863;25.581;4.9728E-5;6.81E-6;0;Amateur
15.06813097;0.0011143;97.4703;163.1145;330.6937;29.3664;5.2228E-5;7.18E-6;0;Amateur
15.06813805;0.0011119;97.4702;163.5011;329.1547;30.9026;5.3812E-5;7.42E-6;0;Amateur
15.0681494;0.0011074;97.4701;164.0811;326.8648;33.1885;5.8636E-5;8.14E-6;0;Amateur
15.06816285;0.0011034;97.47;164.7255;324.2857;35.7632;6.5196E-5;9.11E-6;0;Amateur
15.06816631;0.0011019;97.47;164.9188;323.4919;36.5556;6.647E-5;9.3E-6;0;Amateur
15.06816897;0.0011011;97.4699;165.0477;322.9569;37.0898;6.7804E-5;9.5E-6;0;Amateur
15.06819218;0.0010971;97.4699;165.6921;320.3891;39.6534;8.4216E-5;1.195E-5;0;Amateur
15.0682;0.0010947;97.4698;166.1432;318.6207;41.4191;8.642E-5;1.228E-5;0;Amateur
15.06821789;0.0010898;97.4697;166.852;315.6892;44.3462;9.3935E-5;1.34E-5;0;Amateur
15.06822515;0.0010885;97.4697;167.1097;314.7164;45.3176;9.6682E-5;1.381E-5;0;Amateur
15.06823298;0.0010874;97.4697;167.3674;313.6635;46.3691;9.9395E-5;1.422E-5;0;Amateur
15.06824844;0.0010817;97.4696;168.1407;310.5576;49.4709;9.9193E-5;1.419E-5;0;Amateur
15.06825953;0.0010784;97.4696;168.5917;308.7242;51.302;0.00010004;1.431E-5;0;Amateur
15.06826332;0.0010758;97.4695;168.9139;307.4253;52.5995;9.3727E-5;1.337E-5;0;Amateur
15.06829952;0.0010698;97.4695;169.8804;303.5924;56.4282;0.00010357;1.484E-5;0;Amateur
15.06830764;0.0010682;97.4695;170.1382;302.5477;57.4718;0.00010362;1.485E-5;0;Amateur
15.06832567;0.0010631;97.4694;170.847;299.7147;60.3022;9.8074E-5;1.402E-5;0;Amateur
15.0683395;0.0010617;97.4694;171.2981;297.8681;62.1471;9.5986E-5;1.371E-5;0;Amateur
15.06836053;0.0010568;97.4693;172.0713;294.772;65.2408;9.0779E-5;1.294E-5;0;Amateur
15.06838092;0.001053;97.4693;172.7801;291.9738;68.037;8.7226E-5;1.241E-5;0;Amateur
15.06838808;0.0010518;97.4692;173.0378;290.9035;69.1066;8.5709E-5;1.218E-5;0;Amateur
15.06841002;0.001049;97.4692;173.6821;288.2905;71.7182;8.5275E-5;1.212E-5;0;Amateur
15.06841324;0.0010483;97.4691;173.811;287.7703;72.238;8.4195E-5;1.196E-5;0;Amateur
15.06842898;0.0010459;97.469;174.6486;284.3557;75.651;7.2612E-5;1.023E-5;0;Amateur
15.06843329;0.0010459;97.4689;174.8419;283.635;76.3713;7.1176E-5;1.001E-5;0;Amateur
15.06845137;0.0010441;97.4688;175.6151;280.4833;79.5218;6.5857E-5;9.22E-6;0;Amateur
15.06846144;0.001044;97.4687;175.9372;279.2128;80.7919;6.7414E-5;9.45E-6;0;Amateur
15.06846514;0.0010436;97.4687;176.1305;278.4222;81.5822;6.5484E-5;9.16E-6;0;Amateur
15.06847285;0.001043;97.4685;176.9036;275.2373;84.7664;5.1869E-5;7.13E-6;0;Amateur
15.06848299;0.0010435;97.4684;177.3546;273.3908;86.6126;5.1233E-5;7.04E-6;0;Amateur
15.06848725;0.0010439;97.4683;177.6768;272.0852;87.918;4.7529E-5;6.49E-6;0;Amateur
15.06850949;0.0010459;97.4681;178.5787;268.3887;91.6142;5.0977E-5;7.0E-6;0;Amateur
15.06852513;0.0010495;97.4679;179.6095;264.1934;95.8097;4.7284E-5;6.45E-6;0;Amateur
15.06855182;0.001054;97.4678;180.5758;260.2589;99.7448;6.1187E-5;8.53E-6;0;Amateur
15.06855539;0.0010566;97.4677;180.9623;258.6733;101.3308;5.8951E-5;8.19E-6;0;Amateur
15.06857331;0.0010602;97.4676;181.6066;256.0742;103.9307;6.8684E-5;9.65E-6;0;Amateur
15.06858058;0.0010626;97.4676;181.9287;254.7729;105.2324;7.1572E-5;1.008E-5;0;Amateur
15.06860181;0.0010662;97.4675;182.5085;252.3819;107.6244;8.401E-5;1.193E-5;0;Amateur
15.06862493;0.0010675;97.4675;182.7017;251.6073;108.3994;0.00010587;1.52E-5;0;Amateur
15.06863156;0.0010685;97.4674;182.895;250.8516;109.1556;0.00010829;1.556E-5;0;Amateur
15.06864196;0.0010715;97.4673;183.4747;248.4515;111.5571;0.00010446;1.499E-5;0;Amateur
15.06865465;0.0010749;97.4674;183.8614;246.9319;113.0775;0.00010756;1.545E-5;0;Amateur
15.06867917;0.001078;97.4673;184.4412;244.58;115.4312;0.0001168;1.683E-5;0;Amateur
15.06869528;0.0010808;97.4673;184.8277;243.0359;116.9765;0.00012105;1.747E-5;0;Amateur
15.06875639;0.0010865;97.4672;185.7941;239.15;120.866;0.00014704;2.136E-5;0;Amateur
15.06879493;0.0010925;97.4672;186.8248;234.9658;125.0545;0.00013676;1.982E-5;0;Amateur
15.06881498;0.0010949;97.4672;187.3402;232.8691;127.1538;0.00013131;1.901E-5;0;Amateur
15.06885187;0.001101;97.4671;188.3709;228.7376;131.2904;0.00011608;1.674E-5;0;Amateur
15.06885512;0.0011015;97.4671;188.4997;228.2227;131.806;0.00011264;1.622E-5;0;Amateur
15.06888622;0.0011098;97.4669;189.5304;224.1192;135.9151;9.3588E-5;1.338E-5;0;Amateur
15.06888983;0.001111;97.4669;189.6593;223.5987;136.4363;9.1437E-5;1.306E-5;0;Amateur
15.06890942;0.0011171;97.4669;190.4323;220.5538;139.4858;7.7959E-5;1.104E-5;0;Amateur
15.06891544;0.0011193;97.4668;190.69;219.5534;140.4878;7.3533E-5;1.038E-5;0;Amateur
15.06893082;0.001123;97.4668;191.1409;217.8422;142.2017;7.2551E-5;1.024E-5;0;Amateur
15.06893256;0.0011261;97.4667;191.463;216.6017;143.4442;6.2269E-5;8.7E-6;0;Amateur
15.06893841;0.0011287;97.4667;191.7207;215.6434;144.4041;5.9841E-5;8.34E-6;0;Amateur
15.0689493;0.0011331;97.4666;192.3004;213.4568;146.5945;5.3546E-5;7.4E-6;0;Amateur
15.06895228;0.0011388;97.4665;192.8801;211.2814;148.7737;4.0961E-5;5.52E-6;0;Amateur
15.06896008;0.0011412;97.4664;193.2022;210.0925;149.9648;4.158E-5;5.61E-6;0;Amateur
15.06897002;0.0011498;97.4662;194.1683;206.5248;153.5393;3.2953E-5;4.32E-6;0;Amateur
